GLOBALSTAR M054 [-]     
1 25885U 99043C   21201.89852321 -.00000068  00000-0  85131-4 0  9994
2 25885  52.0163  45.3438 0003333 218.1248 247.4326 11.39186524956437
GLOBALSTAR M053 [-]     
1 25886U 99043D   21202.01121024 -.00000068  00000-0  24167-4 0  9991
2 25886  51.9977 273.0152 0003704 175.6532 243.4292 11.27640609958589
GLOBALSTAR M058 [-]     
1 25907U 99049A   21201.73729609 -.00000097  00000-0 -16798-3 0  9995
2 25907  51.9960 320.6067 0001631  44.6642 315.4324 11.93142549982365
GLOBALSTAR M050 [-]     
1 25908U 99049B   21201.87108604 -.00000022  00000-0  74539-3 0  9991
2 25908  52.0008  74.5521 0009802  65.8175  15.3817 12.07398481975780
GLOBALSTAR M033 [-]     
1 25909U 99049C   21201.87640715 -.00000028  00000-0  60868-3 0  9992
2 25909  51.9929  44.9437 0010946 236.4182 123.5621 12.20221102361495
GLOBALSTAR M055 [-]     
1 25910U 99049D   21201.49085667 -.00000147  00000-0 -45552-3 0  9997
2 25910  52.0019 126.2244 0007432  43.4726 316.6710 12.29357003992690
GLOBALSTAR M057 [-]     
1 25943U 99058A   21201.84657478 -.00000112  00000-0 -17217-3 0  9996
2 25943  51.9998  78.6343 0002493 333.4881  26.5841 12.24748979992037
GLOBALSTAR M059 [-]     
1 25944U 99058B   21201.46057031 -.00000061  00000-0  31539-3 0  9999
2 25944  52.0020 109.4524 0001464  22.9200 148.1949 11.99938626402646
GLOBALSTAR M056 [-]     
1 25945U 99058C   21202.14806692 -.00000036  00000-0  59854-3 0  9993
2 25945  51.9956 146.2054 0000752 244.8330 128.8231 12.04735523990669
GLOBALSTAR M031 [-]     
1 25946U 99058D   21202.20922981 -.00000035  00000-0  56816-3 0  9995
2 25946  51.9960 123.6759 0001071 145.7344   2.0354 12.15969028991183
GLOBALSTAR M039 [-]     
1 25961U 99062A   21201.63885232 -.00000086  00000-0  98527-4 0  9992
2 25961  51.9854 296.2940 0003317  80.3948 279.7293 12.62228754999921
GLOBALSTAR M034 [-]     
1 25962U 99062B   21201.53199039 -.00000099  00000-0 -29362-3 0  9990
2 25962  51.9874 122.2626 0013864 225.3403 305.6930 11.79400534969927
GLOBALSTAR M029 [-]     
1 25963U 99062C   21201.77752788 -.00000071  00000-0  18242-3 0  9997
2 25963  51.9828 357.8340 0002624 171.9457 324.6672 11.99850954997767
GLOBALSTAR M061 [-]     
1 25964U 99062D   21201.69644560 -.00000071  00000-0  15046-3 0  9996
2 25964  51.9796 286.9671 0006526 160.8550   7.0347 11.76733872953157
GLOBALSTAR M063 [+]     
1 26081U 00008A   21201.66631277 -.00000067  00000-0  22794-3 0  9990
2 26081  51.9944 270.9752 0004962 106.8715  54.9622 11.86127585988177
GLOBALSTAR M062 [-]     
1 26082U 00008B   21201.62831112 -.00000089  00000-0  62550-4 0  9996
2 26082  51.9866 333.4010 0005872 304.7573  68.4702 12.43376193981532
GLOBALSTAR M060 [-]     
1 26083U 00008C   21201.68551351 -.00000133  00000-0 -42279-3 0  9993
2 26083  52.0030  91.3514 0003608  92.6919 311.2350 12.17590554978634
GLOBALSTAR M064 [-]     
1 26084U 00008D   21201.77660603 -.00000068  00000-0  22087-3 0  9996
2 26084  52.0050  26.3471 0001203 164.4245 195.6624 11.88491702997480
GLOBALSTAR M065 [+]     
1 31571U 07020A   21201.85884992 -.00000076  00000-0  15644-3 0  9992
2 31571  51.9895 251.3354 0001241 216.2463 315.4680 12.62266493653193
GLOBALSTAR M069 [+]     
1 31573U 07020C   21201.79285789 -.00000076  00000-0  15224-3 0  9990
2 31573  51.9925 207.7347 0001213 245.8313 285.7971 12.62264179654289
GLOBALSTAR M072 [+]     
1 31574U 07020D   21202.22916330 -.00000079  00000-0  13922-3 0  9999
2 31574  52.0094 301.3916 0001690 132.4352 242.1761 12.62267598652779
GLOBALSTAR M071 [P]     
1 31576U 07020F   21201.74024586 -.00000084  00000-0  11078-3 0  9996
2 31576  52.0040 212.2301 0001713 225.0404 307.2134 12.62263658315465
GLOBALSTAR M067 [+]     
1 32263U 07048A   21201.65060528 -.00000062  00000-0  25954-3 0  9990
2 32263  51.9710 252.7036 0001324 171.7142 356.3082 12.40600573632308
GLOBALSTAR M070 [+]     
1 32264U 07048B   21201.64769906 -.00000109  00000-0 -28153-4 0  9994
2 32264  51.9737 157.0816 0001550 290.9023 240.5636 12.62264889633382
GLOBALSTAR M066 [+]     
1 32265U 07048C   21202.23717404 -.00000102  00000-0  99432-5 0  9998
2 32265  51.9693  17.7521 0001892  56.1355 114.5111 12.62261226636662
GLOBALSTAR M068 [-]     
1 32266U 07048D   21201.62234831 -.00000083  00000-0  11417-3 0  9992
2 32266  51.9907 333.4927 0001072 156.8102 215.8881 12.62725582637230
GLOBALSTAR M079 [+]     
1 37188U 10054A   21202.21126726 -.00000104  00000-0 -35426-6 0  9994
2 37188  52.0023 163.7372 0000417  12.2732  90.3611 12.62266751496927
GLOBALSTAR M074 [+]     
1 37189U 10054B   21201.61928331 -.00000108  00000-0 -22221-4 0  9991
2 37189  51.9999 165.0835 0000402   3.7714 167.8253 12.62264891496774
GLOBALSTAR M076 [+]     
1 37190U 10054C   21201.64522215 -.00000117  00000-0 -76090-4 0  9990
2 37190  52.0019 165.0432 0000707  51.8488 118.5015 12.62267331496494
GLOBALSTAR M077 [+]     
1 37191U 10054D   21202.18534453 -.00000117  00000-0 -76044-4 0  9997
2 37191  52.0070 119.8457 0000594  42.8745 123.1281 12.62268179497675
GLOBALSTAR M075 [+]     
1 37192U 10054E   21202.19269272 -.00000086  00000-0  98425-4 0  9994
2 37192  51.9920 206.4257 0000186  45.9657  33.1192 12.62266511496164
GLOBALSTAR M073 [+]     
1 37193U 10054F   21201.50044641 -.00000114  00000-0 -56843-4 0  9991
2 37193  52.0059 121.2701 0000580  43.4406 127.4893 12.62267260497530
GLOBALSTAR M083 [+]     
1 37739U 11033A   21201.80965979 -.00000109  00000-0 -29671-4 0  9997
2 37739  51.9866  71.0073 0000724  47.2972  31.2661 12.62263329466694
GLOBALSTAR M088 [+]     
1 37740U 11033B   21201.54556431 -.00000108  00000-0 -21735-4 0  9991
2 37740  51.9755 338.5058 0000789  79.2193 358.1584 12.62264704462125
GLOBALSTAR M091 [+]     
1 37741U 11033C   21201.56530334 -.00000097  00000-0  38282-4 0  9999
2 37741  52.0008 299.4466 0000509 109.1859 356.8781 12.62267403462919
GLOBALSTAR M085 [+]     
1 37742U 11033D   21202.17594656 -.00000085  00000-0  10468-3 0  9997
2 37742  51.9848 249.8880 0000295 144.6306 278.6182 12.62266332463975
GLOBALSTAR M081 [+]     
1 37743U 11033E   21202.19731069 -.00000072  00000-0  17532-3 0  9996
2 37743  51.9942 251.7295 0000333  97.9967 302.4463 12.62265061464011
GLOBALSTAR M089 [+]     
1 37744U 11033F   21201.79078676 -.00000077  00000-0  14676-3 0  9991
2 37744  51.9903 207.4624 0000376 138.7021  33.4467 12.62266524464420
GLOBALSTAR M084 [+]     
1 38040U 11080A   21201.86908007 -.00000107  00000-0 -16010-4 0  9991
2 38040  52.0016  73.7622 0000931  74.4474  32.1412 12.62264963442500
GLOBALSTAR M080 [+]     
1 38041U 11080B   21201.90099706 -.00000094  00000-0  56287-4 0  9998
2 38041  52.0067  74.7676 0000991  74.5332 298.6923 12.62264254442629
GLOBALSTAR M082 [+]     
1 38042U 11080C   21201.86195178 -.00000102  00000-0  98132-5 0  9990
2 38042  52.0090  30.1840 0000620  57.7445  76.6838 12.62265802443262
GLOBALSTAR M092 [+]     
1 38043U 11080D   21202.15501795 -.00000124  00000-0 -11499-3 0  9994
2 38043  52.0084 119.5890 0000424  88.1289  58.4573 12.62263519441949
GLOBALSTAR M090 [+]     
1 38044U 11080E   21201.78231971 -.00000111  00000-0 -38267-4 0  9998
2 38044  51.9905  26.0740 0000842  70.4106 303.1019 12.62266812443353
GLOBALSTAR M086 [+]     
1 38045U 11080F   21201.80876634 -.00000096  00000-0  41633-4 0  9995
2 38045  51.9912  26.4341 0002105  63.1517 310.1389 12.62266561443306
GLOBALSTAR M097 [+]     
1 39072U 13005A   21201.99060692 -.00000100  00000-0  23219-4 0  9990
2 39072  52.0056 298.9731 0000601  82.5584 277.5351 12.62267722390659
GLOBALSTAR M093 [+]     
1 39073U 13005B   21201.80592786 -.00000101  00000-0  15997-4 0  9990
2 39073  51.9819 295.1267 0000498  80.5352 279.5570 12.62266178390517
GLOBALSTAR M094 [+]     
1 39074U 13005C   21202.04334186 -.00000088  00000-0  86287-4 0  9990
2 39074  51.9931 207.3573 0000108  36.7157 323.3717 12.62268478392161
GLOBALSTAR M096 [+]     
1 39075U 13005D   21202.13566884 -.00000084  00000-0  11289-3 0  9998
2 39075  52.0059 254.4754 0000260  97.4325 262.6571 12.62268776391421
GLOBALSTAR M078 [+]     
1 39076U 13005E   21201.63407982 -.00000162  00000-0 -32530-3 0  9996
2 39076  51.9897 342.4527 0000243 195.3342 164.7517 12.62264961389650
GLOBALSTAR M095 [+]     
1 39077U 13005F   21201.81889895 -.00000109  00000-0 -31579-4 0  9998
2 39077  51.9821 339.7965 0000279  80.6680 279.4218 12.62263663389530
GOES 1 (SMS-C) [-]      
1 08366U 75100A   21202.11684514  .00000044  00000-0  00000+0 0  9990
2 08366   9.0623 299.9464 0001184 231.6779  43.2349  1.00292898167230
GOES 2 [-]              
1 10061U 77048A   21201.84702234  .00000030  00000-0  00000-0 0  9993
2 10061  10.5817 310.6825 0011989  18.0011 302.1008  0.99398222 28453
GOES 3 [-]              
1 10953U 78062A   21201.27609366 -.00000179  00000-0  00000-0 0  9994
2 10953  10.8766 314.9372 0003080 120.1242 255.9735  0.99359798110726
GOES 4 [-]              
1 11964U 80074A   21201.60779142 -.00000283  00000-0  00000+0 0  9995
2 11964  11.8022 318.7282 0033659  64.3856 291.0707  0.99234355109844
GOES 5 [-]              
1 12472U 81049A   21201.54862194  .00000089  00000-0  00000+0 0  9999
2 12472  12.5066 329.7729 0001586 113.7336 270.4399  1.00272511104986
GOES 6 [-]              
1 14050U 83041A   21202.18236647  .00000053  00000-0  00000+0 0  9997
2 14050  12.9963 334.9608 0004438 120.9366 135.0136  1.00283931198083
GOES 7 [-]              
1 17561U 87022A   21201.21237425 -.00000263  00000-0  00000-0 0  9993
2 17561  14.5086 351.3638 0006576  51.8494 304.6684  0.99907367109045
GOES 8 [-]              
1 23051U 94022A   21201.74085644 -.00000114  00000-0  00000-0 0  9999
2 23051  12.8913  26.5790 0006895  23.2043 350.7104  0.98906681106406
GOES 9 [-]              
1 23581U 95025A   21201.63313264  .00000006  00000-0  00000-0 0  9990
2 23581  12.3801  26.7435 0008183  79.9922 286.5488  0.98799193 95056
